NORAD_CAT_ID,OBJECT_NAME,OBJECT_TYPE,EPOCH,MEAN_MOTION,ECCENTRICITY,INCLINATION,RA_OF_ASC_NODE,ARG_OF_PERICENTER,MEAN_ANOMALY,BSTAR,MEAN_MOTION_DOT,MEAN_MOTION_DDOT,TLE_LINE0,TLE_LINE1,TLE_LINE2,SEMIMAJOR_AXIS,PERIOD,APOGEE,PERIGEE,DECAYED
55410.0,STARLINK-5633,PAYLOAD,2024-03-15 04:37:27,14.98328982,0.0002962,69.9992,111.0091,270.8887,89.1933,-3.3373e-05,-4.91e-06,0.0,0 STARLINK-5633,1 55410U 23014V   24075.19267922 -.00000491  00000-0 -33373-4 0  9990,2 55410  69.9992 111.0091 0002962 270.8887  89.1933 14.98328982 63043,6950.196,96.107,574.12,570.002,0.0
55410.0,STARLINK-5633,PAYLOAD,2024-03-15 11:01:59,14.98329221,0.000295,69.9992,110.3358,271.0623,89.0198,-2.7321e-05,-4.19e-06,0.0,0 STARLINK-5633,1 55410U 23014V   24075.45971895 -.00000419  00000-0 -27321-4 0  9996,2 55410  69.9992 110.3358 0002950 271.0623  89.0198 14.98329221 63082,6950.195,96.107,574.111,570.01,0.0
55410.0,STARLINK-5633,PAYLOAD,2024-03-16 04:39:28,14.98331361,0.0002943,69.999,108.4842,271.3634,88.7188,-1.0994e-05,-2.24e-06,0.0,0 STARLINK-5633,1 55410U 23014V   24076.19407668 -.00000224  00000-0 -10994-4 0  9992,2 55410  69.9990 108.4842 0002943 271.3634  88.7188 14.98331361 63198,6950.189,96.107,574.099,570.008,0.0
55410.0,STARLINK-5633,PAYLOAD,2024-03-16 11:04:00,14.98330796,0.0002918,69.999,107.8112,270.4249,89.6576,-1.2832e-05,-2.46e-06,0.0,0 STARLINK-5633,1 55410U 23014V   24076.46111688 -.00000246  00000-0 -12832-4 0  9993,2 55410  69.9990 107.8112 0002918 270.4249  89.6576 14.98330796 63232,6950.19,96.107,574.083,570.027,0.0
55410.0,STARLINK-5633,PAYLOAD,2024-03-17 04:41:29,14.9832582,0.0002889,69.999,105.9595,265.9562,94.1267,8.6787e-06,1.1e-07,0.0,0 STARLINK-5633,1 55410U 23014V   24077.19547958  .00000011  00000-0  86787-5 0  9996,2 55410  69.9990 105.9595 0002889 265.9562  94.1267 14.98325820 63342,6950.206,96.107,574.079,570.063,0.0
55410.0,STARLINK-5633,PAYLOAD,2024-03-17 12:42:09,14.98324521,0.000292,69.999,105.1178,266.2069,93.8756,-8.5301e-06,-1.95e-06,0.0,0 STARLINK-5633,1 55410U 23014V   24077.52928178 -.00000195  00000-0 -85301-5 0  9996,2 55410  69.9990 105.1178 0002920 266.2069  93.8756 14.98324521 63394,6950.21,96.107,574.104,570.045,0.0
55410.0,STARLINK-5633,PAYLOAD,2024-03-18 04:43:30,14.98331961,0.0003071,69.9985,103.4342,268.2921,91.7886,2.4002e-05,1.93e-06,0.0,0 STARLINK-5633,1 55410U 23014V   24078.19687631  .00000193  00000-0  24002-4 0  9992,2 55410  69.9985 103.4342 0003071 268.2921  91.7886 14.98331961 63497,6950.187,96.107,574.186,569.917,0.0
55410.0,STARLINK-5633,PAYLOAD,2024-03-18 11:08:02,14.98333048,0.000305,69.9985,102.7609,267.7595,92.3215,3.6854e-05,3.47e-06,0.0,0 STARLINK-5633,1 55410U 23014V   24078.46391488  .00000347  00000-0  36854-4 0  9993,2 55410  69.9985 102.7609 0003050 267.7595  92.3215 14.98333048 63539,6950.183,96.107,574.168,569.929,0.0
55410.0,STARLINK-5633,PAYLOAD,2024-03-19 11:10:03,14.98330799,0.0003033,69.9986,100.2362,266.4705,93.6107,6.0839e-05,6.33e-06,0.0,0 STARLINK-5633,1 55410U 23014V   24079.46531515  .00000633  00000-0  60839-4 0  9999,2 55410  69.9986 100.2362 0003033 266.4705  93.6107 14.98330799 63689,6950.19,96.107,574.163,569.947,0.0
55410.0,STARLINK-5633,PAYLOAD,2024-03-20 11:12:04,14.98328451,0.0002929,69.9989,97.7109,265.9355,94.147,-3.4311e-05,-5.02e-06,0.0,0 STARLINK-5633,1 55410U 23014V   24080.46671949 -.00000502  00000-0 -34311-4 0  9990,2 55410  69.9989  97.7109 0002929 265.9355  94.1470 14.98328451 63837,6950.198,96.107,574.098,570.027,0.0
55410.0,STARLINK-5633,PAYLOAD,2024-03-21 11:14:04,14.98335088,0.000297,69.9989,95.1859,269.3176,90.7643,4.543e-05,4.49e-06,0.0,0 STARLINK-5633,1 55410U 23014V   24081.46811202  .00000449  00000-0  45430-4 0  9991,2 55410  69.9989  95.1859 0002970 269.3176  90.7643 14.98335088 63980,6950.177,96.107,574.106,569.978,0.0
55410.0,STARLINK-5633,PAYLOAD,2024-03-21 17:38:37,14.98332424,0.0002989,69.9989,94.5119,273.8894,86.1923,3.6806e-05,3.46e-06,0.0,0 STARLINK-5633,1 55410U 23014V   24081.73515367  .00000346  00000-0  36806-4 0  9997,2 55410  69.9989  94.5119 0002989 273.8894  86.1923 14.98332424 64026,6950.185,96.107,574.128,569.973,0.0
55410.0,STARLINK-5633,PAYLOAD,2024-03-22 09:39:57,14.98332649,0.0002885,69.999,92.8293,270.2314,89.8515,8.4576e-05,9.16e-06,0.0,0 STARLINK-5633,1 55410U 23014V   24082.40275135  .00000916  00000-0  84576-4 0  9998,2 55410  69.9990  92.8293 0002885 270.2314  89.8515 14.98332649 64122,6950.185,96.107,574.055,570.045,0.0
55410.0,STARLINK-5633,PAYLOAD,2024-03-23 04:53:35,14.98293981,0.0002702,69.9992,90.8095,266.7303,93.3547,0.00050438,5.925e-05,0.0,0 STARLINK-5633,1 55410U 23014V   24083.20388267  .00005925  00000-0  50438-3 0  9992,2 55410  69.9992  90.8095 0002702 266.7303  93.3547 14.98293981 64241,6950.304,96.109,574.047,570.291,0.0
55410.0,STARLINK-5633,PAYLOAD,2024-03-23 11:18:07,14.98326291,0.000284,69.9993,90.1362,269.603,90.4804,-7.3521e-05,-9.7e-06,0.0,0 STARLINK-5633,1 55410U 23014V   24083.47092011 -.00000970  00000-0 -73521-4 0  9996,2 55410  69.9993  90.1362 0002840 269.6030  90.4804 14.98326291 64283,6950.204,96.107,574.043,570.096,0.0
55410.0,STARLINK-5633,PAYLOAD,2024-03-24 04:55:35,14.98334762,0.0002867,69.9995,88.2856,266.3833,93.6998,2.7801e-05,2.39e-06,0.0,0 STARLINK-5633,1 55410U 23014V   24084.20527126  .00000239  00000-0  27801-4 0  9994,2 55410  69.9995  88.2856 0002867 266.3833  93.6998 14.98334762 64398,6950.178,96.107,574.036,570.051,0.0
55410.0,STARLINK-5633,PAYLOAD,2024-03-24 09:43:59,14.98338381,0.0002935,69.9991,87.7794,268.908,91.1743,4.5566e-05,4.51e-06,0.0,0 STARLINK-5633,1 55410U 23014V   24084.40554779  .00000451  00000-0  45566-4 0  9994,2 55410  69.9991  87.7794 0002935 268.9080  91.1743 14.98338381 64423,6950.167,96.106,574.072,569.992,0.0
55410.0,STARLINK-5633,PAYLOAD,2024-03-24 17:44:40,14.98327724,0.0002668,70.0003,86.9344,260.6135,99.4722,1.4871e-05,8.4e-07,0.0,0 STARLINK-5633,1 55410U 23014V   24084.73935514  .00000084  00000-0  14871-4 0  9997,2 55410  70.0003  86.9344 0002668 260.6135  99.4722 14.98327724 64477,6950.2,96.107,573.919,570.211,0.0
55410.0,STARLINK-5633,PAYLOAD,2024-03-25 04:57:37,14.98321818,0.0002902,69.9994,85.7585,272.2982,87.7845,1.3286e-05,6.6e-07,0.0,0 STARLINK-5633,1 55410U 23014V   24085.20668032  .00000066  00000-0  13286-4 0  9997,2 55410  69.9994  85.7585 0002902 272.2982  87.7845 14.98321818 64549,6950.218,96.108,574.1,570.066,0.0
55410.0,STARLINK-5633,PAYLOAD,2024-03-25 17:46:41,14.98326022,0.0002936,69.9994,84.4122,270.8646,89.2176,7.198e-06,-7e-08,0.0,0 STARLINK-5633,1 55410U 23014V   24085.74076017 -.00000007  00000-0  71980-5 0  9994,2 55410  69.9994  84.4122 0002936 270.8646  89.2176 14.98326022 64625,6950.205,96.107,574.111,570.03,0.0
55410.0,STARLINK-5633,PAYLOAD,2024-03-26 04:59:38,14.98329079,0.0002875,69.9994,83.2336,269.5082,90.5747,-4.451e-05,-6.24e-06,0.0,0 STARLINK-5633,1 55410U 23014V   24086.20807997 -.00000624  00000-0 -44510-4 0  9999,2 55410  69.9994  83.2336 0002875 269.5082  90.5747 14.98329079 64691,6950.196,96.107,574.059,570.063,0.0
55410.0,STARLINK-5633,PAYLOAD,2024-03-26 09:48:02,14.98331231,0.0003005,69.9993,82.7288,272.5012,87.5803,-2.942e-05,-4.44e-06,0.0,0 STARLINK-5633,1 55410U 23014V   24086.40835820 -.00000444  00000-0 -29420-4 0  9990,2 55410  69.9993  82.7288 0003005 272.5012  87.5803 14.98331231 64729,6950.189,96.107,574.143,569.966,0.0
55410.0,STARLINK-5633,PAYLOAD,2024-03-27 05:01:38,14.98331823,0.0002999,69.9991,80.7088,273.078,87.0036,0.00014434,1.63e-05,0.0,0 STARLINK-5633,1 55410U 23014V   24087.20947231  .00001630  00000-0  14434-3 0  9993,2 55410  69.9991  80.7088 0002999 273.0780  87.0036 14.98331823 64845,6950.187,96.107,574.137,569.968,0.0
55410.0,STARLINK-5633,PAYLOAD,2024-03-27 09:50:02,14.98334074,0.000286,69.9991,80.2038,269.7461,90.337,0.00019084,2.185e-05,0.0,0 STARLINK-5633,1 55410U 23014V   24087.40974925  .00002185  00000-0  19084-3 0  9997,2 55410  69.9991  80.2038 0002860 269.7461  90.3370 14.98334074 64872,6950.18,96.107,574.033,570.058,0.0
55410.0,STARLINK-5633,PAYLOAD,2024-03-27 22:39:06,14.98340216,0.0003722,69.9994,78.8544,266.2014,93.8719,6.8804e-05,7.28e-06,0.0,0 STARLINK-5633,1 55410U 23014V   24087.94382281  .00000728  00000-0  68804-4 0  9990,2 55410  69.9994  78.8544 0003722 266.2014  93.8719 14.98340216 64953,6950.161,96.106,574.613,569.439,0.0
55410.0,STARLINK-5633,PAYLOAD,2024-03-28 05:03:39,14.98325264,0.0002994,69.9992,78.1831,267.8092,92.2725,-4.651e-05,-6.48e-06,0.0,0 STARLINK-5633,1 55410U 23014V   24088.21087292 -.00000648  00000-0 -46510-4 0  9998,2 55410  69.9992  78.1831 0002994 267.8092  92.2725 14.98325264 64996,6950.208,96.107,574.153,569.992,0.0
55410.0,STARLINK-5633,PAYLOAD,2024-03-28 09:52:04,14.98319329,0.0002847,69.9999,77.6778,271.7917,88.2916,-5.3713e-05,-7.34e-06,0.0,0 STARLINK-5633,1 55410U 23014V   24088.41115804 -.00000734  00000-0 -53713-4 0  9990,2 55410  69.9999  77.6778 0002847 271.7917  88.2916 14.98319329 65021,6950.226,96.108,574.07,570.112,0.0
55410.0,STARLINK-5633,PAYLOAD,2024-03-28 22:41:08,14.98327507,0.0003012,69.9993,76.3324,270.2008,89.8806,-0.00015108,-1.895e-05,0.0,0 STARLINK-5633,1 55410U 23014V   24088.94523537 -.00001895  00000-0 -15108-3 0  9998,2 55410  69.9993  76.3324 0003012 270.2008  89.8806 14.98327507 65109,6950.201,96.107,574.159,569.972,0.0
55410.0,STARLINK-5633,PAYLOAD,2024-03-29 08:17:56,14.9832729,0.0002837,69.9995,75.3208,272.0554,88.028,-0.00010115,-1.3e-05,0.0,0 STARLINK-5633,1 55410U 23014V   24089.34579473 -.00001300  00000-0 -10115-3 0  9997,2 55410  69.9995  75.3208 0002837 272.0554  88.0280 14.98327290 65163,6950.201,96.107,574.038,570.094,0.0
55410.0,STARLINK-5633,PAYLOAD,2024-03-29 16:18:36,14.98346638,0.000313,70.0001,74.4793,273.6717,86.4084,-0.00035842,-4.369e-05,0.0,0 STARLINK-5633,1 55410U 23014V   24089.67958718 -.00004369  00000-0 -35842-3 0  9998,2 55410  70.0001  74.4793 0003130 273.6717  86.4084 14.98346638 65215,6950.141,96.106,574.182,569.831,0.0
